[{"OBJECT_NAME":"STARLINK-5530","OBJECT_ID":"2023-064AY","EPOCH":"2026-03-09T11:49:21.916128","MEAN_MOTION":14.98614426,"ECCENTRICITY":0.00029708,"INCLINATION":69.9976,"RA_OF_ASC_NODE":104.9316,"ARG_OF_PERICENTER":70.895,"MEAN_ANOMALY":289.2531,"EPHEMERIS_TYPE":0,"CLASSIFICATION_TYPE":"U","NORAD_CAT_ID":56494,"ELEMENT_SET_NO":999,"REV_AT_EPOCH":15619,"BSTAR":0.0020351993,"MEAN_MOTION_DOT":0.00024455,"MEAN_MOTION_DDOT":0},{"OBJECT_NAME":"CZ-6A DEB","OBJECT_ID":"2022-151KB","EPOCH":"2026-03-09T19:20:41.637408","MEAN_MOTION":14.94061736,"ECCENTRICITY":0.0071589,"INCLINATION":98.7004,"RA_OF_ASC_NODE":166.2159,"ARG_OF_PERICENTER":166.3306,"MEAN_ANOMALY":193.9872,"EPHEMERIS_TYPE":0,"CLASSIFICATION_TYPE":"U","NORAD_CAT_ID":54523,"ELEMENT_SET_NO":999,"REV_AT_EPOCH":17710,"BSTAR":0.0044467837,"MEAN_MOTION_DOT":0.00050189,"MEAN_MOTION_DDOT":0}]
